tenantId,name,zipCode,country,state,city,address1,address2,address3,environmentType,description,minPasswordCharMix,passwordReuseInDays,passwordExpirationInDays,parentOrgId,minPasswordLength,status,podID,podName,productionFlag,statusMessage,tenantGroupId,tenantGroupName,createdBy,createTime,updatedBy,updateTime
06MZ5kTYWQUcIDcvEVR2of,perf_dnd_59,,United States,,,,,,0,,3,90,180,52ZSTB0IDK6dXxaEQLUaQu,9,InActive,d8TPqZAQ06WkFZLGOshVmP,pod1,,,f5ba0816-2168-401e-a971-ebcc12df0d6b,Performance_july_failed_Group-Quarantine,ma,2023-01-31T12:27:56Z,ma,2023-08-01T12:08:51Z
07Vwf9TwYADf45aSbj1vGy,PlatformQE_Metering_10_Suborg,,US,,,,,,0,,3,90,180,8Ysph08iZG7cV41d9jcjC4,9,InActive,d8TPqZAQ06WkFZLGOshVmP,pod1,,,c4d0d519-66c2-44d4-9173-e17691dda688,Default Provisioning Production Group-Quarantine,hawklics,2023-08-31T16:35:50Z,hawklics,2023-08-31T16:35:50Z
0ALebN4lmdrlph9T8tzBKE,infacore,,IN,,,,,,0,,3,90,180,52ZSTB0IDK6dXxaEQLUaQu,9,InitialTenantRegistrationPending,d8TPqZAQ06WkFZLGOshVmP,pod1,,,c4d0d519-66c2-44d4-9173-e17691dda688,Default Provisioning Production Group-Quarantine,ma,2022-11-23T10:43:15Z,ma,2022-11-23T10:43:15Z
0HfrMxp27nnlJenTy4AhcN,CDGC_V2_17Oct_Discovery_QE4,,United States,,,,,,0,,3,90,180,52ZSTB0IDK6dXxaEQLUaQu,9,InActive,d8TPqZAQ06WkFZLGOshVmP,pod1,,,a8ee62ee-ffbf-4221-9272-34cbe477eae7, QE-ProductionGrp_07Dec_Discovery,ma,2022-10-17T14:21:22Z,ma,2023-04-12T02:43:38Z
0If9TUYShIZlJtg8s9xtQH,04April_Scanner_QE,,United States,,,,,,0,,3,90,180,52ZSTB0IDK6dXxaEQLUaQu,9,InActive,d8TPqZAQ06WkFZLGOshVmP,pod1,,,d9f6080f-3454-495d-9a81-7b381344d796,SAPScanners_April4,ma,2023-04-04T07:01:37Z,ma,2023-07-25T14:16:27Z
0iT4pVTjCZSdfJ27gJQJKP,19Sep_CDGCUI_Perf_10,,United States,,,,,,0,,3,90,180,52ZSTB0IDK6dXxaEQLUaQu,9,Active,d8TPqZAQ06WkFZLGOshVmP,pod1,,,7e6a412b-2798-4e63-be7a-42bf934818f4,19Sept_CDGCUI_ProdGrp,ma,2023-09-19T07:32:44Z,ma,2023-09-19T07:50:07Z
0QfzyTFWU2ecWKLEUSsP4F,13June_Perf_QE_06,,United States,,,,,,0,,3,90,180,52ZSTB0IDK6dXxaEQLUaQu,9,InActive,d8TPqZAQ06WkFZLGOshVmP,pod1,,,9490f008-3234-42fa-9014-31c454709855,May_Perf_Prod_DEV,ma,2023-06-13T15:15:25Z,ma,2023-08-07T11:00:53Z
0VKPKZnrNYNhwVU3lO4xIp,ScannersQE2_Nov_24,,United States,,,,,,0,,3,90,180,52ZSTB0IDK6dXxaEQLUaQu,9,InActive,d8TPqZAQ06WkFZLGOshVmP,pod1,,,35194b41-e5b4-46a4-b477-33a99d97f112,24Nov_Scanner_QE_Prod_12PM_MAIN,ma,2022-11-24T08:38:20Z,ma,2023-07-25T14:17:07Z
11F1DqUSzeofmhbDY3BKwn,cd_cdgc_003,,IN,,,,,,0,,3,90,180,52ZSTB0IDK6dXxaEQLUaQu,9,Active,d8TPqZAQ06WkFZLGOshVmP,pod1,,,6cce3b91-654d-4503-acb1-c56f4cf33003,APP_TG_CDN,ma,2023-07-06T16:16:50Z,ma,2023-07-06T16:36:28Z
1257tQ2rQkujXVjn3Nxv6W,swati_mrelIDMC,,United States,,,,,,0,,3,90,180,52ZSTB0IDK6dXxaEQLUaQu,9,InitialTenantRegistrationPending,d8TPqZAQ06WkFZLGOshVmP,pod1,,,c4d0d519-66c2-44d4-9173-e17691dda688,Default Provisioning Production Group-Quarantine,ma,2023-08-01T23:31:29Z,ma,2023-08-01T23:31:29Z
15JTn9Nkuxhk7N5qYTvaGD,prodx_qa-0,,US,,,,,,0,,3,90,180,641VR4vFE4ufOs2TdNUyoY,9,InitialTenantRegistrationPending,d8TPqZAQ06WkFZLGOshVmP,pod1,,,c4d0d519-66c2-44d4-9173-e17691dda688,Default Provisioning Production Group-Quarantine,msalman,2023-07-27T18:45:28Z,msalman,2023-07-27T18:45:28Z
1aM3jPrpoUadUHril2qpar,Stress_ZDT_test,,US,,,,,,0,,3,0,0,641VR4vFE4ufOs2TdNUyoY,9,InitialTenantRegistrationPending,d8TPqZAQ06WkFZLGOshVmP,pod1,,,c4d0d519-66c2-44d4-9173-e17691dda688,Default Provisioning Production Group-Quarantine,parikkala,2023-09-19T08:13:04Z,ma,2023-09-19T08:13:04Z
1BA66RdrXaahHYHfbxBfeA,Informatica,,IN,,,,,,0,,3,90,180,52ZSTB0IDK6dXxaEQLUaQu,9,InitialTenantRegistrationPending,d8TPqZAQ06WkFZLGOshVmP,pod1,,,c4d0d519-66c2-44d4-9173-e17691dda688,Default Provisioning Production Group-Quarantine,ma,2023-09-19T04:52:31Z,ma,2023-09-19T04:52:31Z
1BPsE2uFPYOfDrad4DXHCS,14July_Perf_QE01,,India,KAR,Bangalore,Address 01,Address 02,Address 03,0,,3,90,180,52ZSTB0IDK6dXxaEQLUaQu,9,InActive,d8TPqZAQ06WkFZLGOshVmP,pod1,,,10032cb1-f42c-491a-a7ac-92069ea364ba,Prod_Perf_QE_GRP,ma,2023-07-14T10:04:27Z,ma,2023-07-14T10:24:05Z
1HefBLdlywIcq1igyye26c,PWXQA-0,,US,,,,,,0,,3,90,180,3zOY8yoPHUscEE2uPXxOUg,9,InitialTenantRegistrationPending,d8TPqZAQ06WkFZLGOshVmP,pod1,,,c4d0d519-66c2-44d4-9173-e17691dda688,Default Provisioning Production Group-Quarantine,mpanak,2023-08-17T14:56:39Z,mpanak,2023-08-17T14:56:39Z
1iAXgiNo6m6ezfJ1Dy8zYh,AWS_Mrel_Pod1_meter7_ProdOrg,,United States,,,,,,0,,3,90,180,52ZSTB0IDK6dXxaEQLUaQu,9,InActive,d8TPqZAQ06WkFZLGOshVmP,pod1,,,c4d0d519-66c2-44d4-9173-e17691dda688,Default Provisioning Production Group-Quarantine,ma,2023-09-03T11:32:08Z,ma,2023-09-03T11:32:08Z
1TtvxmDp9Jkkx7jxgifmaJ,25Jan_mkg_orchestration_cd,,United States,,,,,,0,,3,90,180,52ZSTB0IDK6dXxaEQLUaQu,9,UpgradeFailed,d8TPqZAQ06WkFZLGOshVmP,pod1,,,a62268bd-b51a-45eb-b974-47640209e5fe,ORCH_TG_CDN,ma,2023-01-25T06:30:09Z,ma,2023-01-27T06:33:15Z
1vZ7PzVgp0yhYBr2YLFXG0,18Aug_Globalization,,United States,,,,,,0,,3,90,180,52ZSTB0IDK6dXxaEQLUaQu,9,InitialTenantRegistrationPending,d8TPqZAQ06WkFZLGOshVmP,pod1,,,d483e8a5-0dce-482f-8f44-bbc30b4718e1,Globalization_Production_18Aug-Quarantine,ma,2023-08-18T06:57:38Z,ma,2023-08-18T06:57:38Z
239wtyzIyGdewAwayjhFUD,19Sep_CDGCUI_Perf_09,,United States,,,,,,0,,3,90,180,52ZSTB0IDK6dXxaEQLUaQu,9,Active,d8TPqZAQ06WkFZLGOshVmP,pod1,,,7e6a412b-2798-4e63-be7a-42bf934818f4,19Sept_CDGCUI_ProdGrp,ma,2023-09-19T07:34:12Z,ma,2023-09-19T07:51:06Z
2CxBoiHt4yHgvQ5ZZghlmZ,nov22_dp11,,United States,,,,,,0,,3,90,180,52ZSTB0IDK6dXxaEQLUaQu,9,InActive,d8TPqZAQ06WkFZLGOshVmP,pod1,,,7064089a-0266-431a-a261-31d65b67ef7e,CDGCPerf_NovTenants_group1,ma,2022-11-24T10:55:04Z,ma,2023-07-25T14:18:55Z
2EIku0rsNUgeVpBeFMqzUp,23Aug_Scanner_QE,,United States,,,,,,0,,3,90,180,52ZSTB0IDK6dXxaEQLUaQu,9,InActive,d8TPqZAQ06WkFZLGOshVmP,pod1,,,1997c23c-d976-4b99-8f10-0acc8b60f08f,QE-ProductionGrp_INITIAL_SEPT_Scanner-Quarantine,ma,2022-08-23T11:35:34Z,ma,2023-07-25T14:18:58Z
2HKAz8DlT8NhJPMFK72pC1,MKG_AutoCatalog01,,United States,,,,,,0,,3,90,180,52ZSTB0IDK6dXxaEQLUaQu,9,Active,d8TPqZAQ06WkFZLGOshVmP,pod1,,,dbe4e547-b032-4ec4-8095-b3b2ca69a6ed,AutoCatalog,ma,2023-09-21T12:33:02Z,ma,2023-09-21T13:04:36Z
2lIOz6Zame3kri3glcVkM1,perf_dnd_32,,United States,,,,,,0,,3,90,180,52ZSTB0IDK6dXxaEQLUaQu,9,InActive,d8TPqZAQ06WkFZLGOshVmP,pod1,,,f5ba0816-2168-401e-a971-ebcc12df0d6b,Performance_july_failed_Group-Quarantine,ma,2023-01-31T12:24:16Z,ma,2023-08-01T12:08:51Z
2NgcCjevpUdfRxFy94l5gl,ddsept2023,,United States,,,,,,0,,3,90,180,52ZSTB0IDK6dXxaEQLUaQu,9,InitialTenantRegistrationPending,d8TPqZAQ06WkFZLGOshVmP,pod1,,,c4d0d519-66c2-44d4-9173-e17691dda688,Default Provisioning Production Group-Quarantine,ma,2023-08-28T06:01:36Z,ma,2023-08-28T06:01:36Z
2teAkiQEOeodwKaUBnP7gE,mrel-suborg,,US,,,,,,0,,3,90,180,5Sk5eG7sj2qcKKKYmYizwm,9,InitialTenantRegistrationPending,d8TPqZAQ06WkFZLGOshVmP,pod1,,,c4d0d519-66c2-44d4-9173-e17691dda688,Default Provisioning Production Group-Quarantine,mrelpod1,2023-07-24T09:27:15Z,mrelpod1,2023-07-24T09:27:15Z
2TMOonehCrbjGVdvyAGiEx,AWS_Mrel_Pod1_meter9_ProdOrg,,United States,,,,,,0,,3,90,180,52ZSTB0IDK6dXxaEQLUaQu,9,InActive,d8TPqZAQ06WkFZLGOshVmP,pod1,,,c4d0d519-66c2-44d4-9173-e17691dda688,Default Provisioning Production Group-Quarantine,ma,2023-09-03T11:32:32Z,ma,2023-09-03T11:32:32Z
2UWVIhtLODClNUcxyPbIuZ,rel_upgrade_dnd_098,,United States,,,,,,0,,3,90,180,52ZSTB0IDK6dXxaEQLUaQu,9,InActive,d8TPqZAQ06WkFZLGOshVmP,pod1,,,4f7c4174-915d-43f5-b48a-66668305fcb9,JuneToJul_50Tenants_BaseGroup,ma,2023-06-16T19:22:47Z,ma,2023-07-18T10:44:23Z
34PfYVlxX3GcekTzOVcYKV,05Sep_Platform_QE,,United States,,,,,,0,,3,90,180,52ZSTB0IDK6dXxaEQLUaQu,9,InActive,d8TPqZAQ06WkFZLGOshVmP,pod1,,,23706e78-b4b8-4503-a62d-d98528e75ad4, 2023.08.S_Final_Platform_Prod,ma,2023-09-05T06:02:36Z,ma,2023-09-18T18:18:12Z
3cmWl3NPTaOdgABhUSiuco,SKALLURU_MONGO_OCT,,US,,,,,,0,,1,0,0,5OZUAavlKeoemEkLiNyd8l,4,InitialTenantRegistrationPending,d8TPqZAQ06WkFZLGOshVmP,pod1,,,c4d0d519-66c2-44d4-9173-e17691dda688,Default Provisioning Production Group-Quarantine,selbaz@informatica.com,2023-08-23T10:11:39Z,selbaz@informatica.com,2023-08-23T10:11:39Z
3FEblt9SVYpdjLjhEnmLGN,2023_09_P_PlatformQe_Sanity_Tenant2,,United States,,,,,,0,,3,90,180,52ZSTB0IDK6dXxaEQLUaQu,9,Active,d8TPqZAQ06WkFZLGOshVmP,pod1,,,f01561bd-68e4-434f-96b7-1af6d6add1ec,2023_09_P_PlatformQe_Sanity_ProdGrp,ma,2023-09-19T08:41:51Z,ma,2023-09-19T08:59:17Z
3GdWe9S05gdeDnec9qTQqr,plt_test_upgrade01,,United States,,,,,,0,,3,90,180,52ZSTB0IDK6dXxaEQLUaQu,9,InActive,d8TPqZAQ06WkFZLGOshVmP,pod1,,,6ff9e785-cd41-48fb-b96a-fc709d7ee52a,pltform_PROD_3rd_August,ma,2023-08-03T08:47:11Z,ma,2023-08-22T06:04:42Z
3MqvKxTjRfoeq2gE0QEnkq,ERAgent8Aug,,IN,,,,,,0,,3,90,180,52ZSTB0IDK6dXxaEQLUaQu,9,InitialTenantRegistrationPending,d8TPqZAQ06WkFZLGOshVmP,pod1,,,c4d0d519-66c2-44d4-9173-e17691dda688,Default Provisioning Production Group-Quarantine,ma,2023-08-08T06:20:39Z,ERAgent8Aug,2023-08-08T06:22:11Z
3pY3CzTJa9zbRAoEiH3KoI,nov22_dp13,,United States,,,,,,0,,3,90,180,52ZSTB0IDK6dXxaEQLUaQu,9,InActive,d8TPqZAQ06WkFZLGOshVmP,pod1,,,7064089a-0266-431a-a261-31d65b67ef7e,CDGCPerf_NovTenants_group1,ma,2022-11-24T10:55:29Z,ma,2023-07-25T14:20:40Z
3UXfUyZknQ6cysdQfxxyEa,09Jan_Discovery_QE,,United States,,,,,,0,,3,90,180,52ZSTB0IDK6dXxaEQLUaQu,9,InActive,d8TPqZAQ06WkFZLGOshVmP,pod1,,,3c694168-49a8-4883-8b1a-8da9ec520d7c,28Feb_ProdGrp_QE-Quarantine,ma,2023-01-09T08:51:41Z,ma,2023-04-08T11:29:15Z
3zOY8yoPHUscEE2uPXxOUg,PWXQA,,US,,,,,,0,,3,0,0,52ZSTB0IDK6dXxaEQLUaQu,9,InActive,d8TPqZAQ06WkFZLGOshVmP,pod1,,,8165ea80-ebab-482a-a9dd-a16a0e84ea2e,Default Production-Quarantine,ma,2020-07-21T13:40:48Z,mpanak,2023-07-25T14:21:07Z
43Yn6Q0F41vbLL2kuCkxWJ,04April_AdvScanner_QE,,United States,,,,,,0,,3,90,180,52ZSTB0IDK6dXxaEQLUaQu,9,InActive,d8TPqZAQ06WkFZLGOshVmP,pod1,,,5a276dec-de06-46c9-befe-9b5a3e54ee11,AdvScanner_04April_CR_Group,ma,2023-04-04T06:47:28Z,ma,2023-06-13T08:10:18Z
48RInHYi6K2fFyv1HRALq7,rel_upgrade_dnd_087,,United States,,,,,,0,,3,90,180,52ZSTB0IDK6dXxaEQLUaQu,9,InActive,d8TPqZAQ06WkFZLGOshVmP,pod1,,,4f7c4174-915d-43f5-b48a-66668305fcb9,JuneToJul_50Tenants_BaseGroup,ma,2023-06-16T19:07:49Z,ma,2023-07-18T10:16:41Z
48Y5YiENtmUiGsOxi9CI8w,13Oct_Scanner_QE1,,United States,,,,,,0,,3,90,180,52ZSTB0IDK6dXxaEQLUaQu,9,InActive,d8TPqZAQ06WkFZLGOshVmP,pod1,,,f56d38d5-e9c7-474c-a470-216c363018be,Discovery_Class_EBFValidation-Quarantine,ma,2022-10-13T05:39:08Z,ma,2023-07-25T14:21:20Z
4bBRpFeff0OigB1WTU3NmY,AWS_Mrel_Pod1_meter8_ProdOrg,,United States,,,,,,0,,3,90,180,52ZSTB0IDK6dXxaEQLUaQu,9,InActive,d8TPqZAQ06WkFZLGOshVmP,pod1,,,c4d0d519-66c2-44d4-9173-e17691dda688,Default Provisioning Production Group-Quarantine,ma,2023-09-03T11:32:20Z,ma,2023-09-03T11:32:20Z
4CEsjfo3eWMlNqJyqTpE8V,rel_upgrade_dnd_031,,United States,,,,,,0,,3,90,180,52ZSTB0IDK6dXxaEQLUaQu,9,InActive,d8TPqZAQ06WkFZLGOshVmP,pod1,,,6c1e38f8-908b-43fe-b3ca-b55a3e8877f8,inactive_perf_tenants_prod,ma,2023-06-16T14:10:31Z,ma,2023-08-04T13:04:04Z
4CLxofyf4IyhEnJajIneYn,HIVEPOC,,India,,,,,,0,,3,90,180,52ZSTB0IDK6dXxaEQLUaQu,9,InitialTenantRegistrationPending,d8TPqZAQ06WkFZLGOshVmP,pod1,,,c4d0d519-66c2-44d4-9173-e17691dda688,Default Provisioning Production Group-Quarantine,ma,2023-08-08T05:51:27Z,ma,2023-08-08T05:51:27Z
4dfLpB5k7oQh5AfVcMuQcn,PlatformQE_Metering_11_Sandbox,,United States,,,,,,0,,3,90,180,52ZSTB0IDK6dXxaEQLUaQu,9,InitialTenantRegistrationPending,d8TPqZAQ06WkFZLGOshVmP,pod1,,,c4d0d519-66c2-44d4-9173-e17691dda688,Default Provisioning Production Group-Quarantine,ma,2023-09-01T05:13:56Z,ma,2023-09-01T05:13:56Z
4DJ7rc2Df0vjfE4Ip9VU2K,perf_dnd_16,,United States,,,,,,0,,3,90,180,52ZSTB0IDK6dXxaEQLUaQu,9,InActive,d8TPqZAQ06WkFZLGOshVmP,pod1,,,f5ba0816-2168-401e-a971-ebcc12df0d6b,Performance_july_failed_Group-Quarantine,ma,2023-01-31T12:22:24Z,ma,2023-08-01T12:08:51Z
4gS8f4MNW9Yj9Ako5MsTy6,AWS_Mrel_Pod1_meter10_ProdOrg,,United States,,,,,,0,,3,90,180,52ZSTB0IDK6dXxaEQLUaQu,9,InActive,d8TPqZAQ06WkFZLGOshVmP,pod1,,,c4d0d519-66c2-44d4-9173-e17691dda688,Default Provisioning Production Group-Quarantine,ma,2023-09-03T11:32:42Z,ma,2023-09-03T11:32:42Z
4KFPXYQMzURidbj1EbZHor,perf_dnd_15,,United States,,,,,,0,,3,90,180,52ZSTB0IDK6dXxaEQLUaQu,9,InActive,d8TPqZAQ06WkFZLGOshVmP,pod1,,,f5ba0816-2168-401e-a971-ebcc12df0d6b,Performance_july_failed_Group-Quarantine,ma,2023-01-31T12:22:17Z,ma,2023-08-01T12:08:51Z
4m4PDsPTOyBlyfATi9JOaL,INFA_OI,,IN,,,,,,0,,3,90,180,52ZSTB0IDK6dXxaEQLUaQu,9,InitialTenantRegistrationPending,d8TPqZAQ06WkFZLGOshVmP,pod1,,,c4d0d519-66c2-44d4-9173-e17691dda688,Default Provisioning Production Group-Quarantine,ma,2022-11-03T05:29:33Z,ma,2022-11-03T05:29:33Z
4m6xkQjF6AhaZYTmqZ7Fms,20Sep_SHIFTJIS_01,,United States,,,,,,0,,3,90,180,52ZSTB0IDK6dXxaEQLUaQu,9,Active,d8TPqZAQ06WkFZLGOshVmP,pod1,,,e51e4702-3a34-47c6-bd2a-9c7bf5a79793,20Sep_SHIFTJIS_ProdGrp,ma,2023-09-20T07:00:07Z,ma,2023-09-20T07:18:51Z
4QrKnREFurMlCl3Ma6Rsa2,PlatformQE_Metering_10_Sandbox,,United States,,,,,,0,,3,90,180,52ZSTB0IDK6dXxaEQLUaQu,9,InitialTenantRegistrationPending,d8TPqZAQ06WkFZLGOshVmP,pod1,,,c4d0d519-66c2-44d4-9173-e17691dda688,Default Provisioning Production Group-Quarantine,ma,2023-08-31T16:30:19Z,ma,2023-08-31T16:30:19Z
4swdIVOMWy4b01jPX5MXQF,15Feb_Scanner_QE,,United States,,,,,,0,,3,90,180,52ZSTB0IDK6dXxaEQLUaQu,9,InActive,d8TPqZAQ06WkFZLGOshVmP,pod1,,,0f149297-4c16-4cab-84ae-849f64843335,15Feb_Prodgrp_QE,ma,2023-02-15T06:41:56Z,ma,2023-07-25T14:22:01Z
4Ur84lo7Gbeg8MWR9EDwyi,PlatformQE_Metering_06,,United States,,,,,,0,,3,90,180,52ZSTB0IDK6dXxaEQLUaQu,9,InActive,d8TPqZAQ06WkFZLGOshVmP,pod1,,,c4d0d519-66c2-44d4-9173-e17691dda688,Default Provisioning Production Group-Quarantine,ma,2023-08-31T10:01:51Z,ma,2023-08-31T10:01:51Z
4vM4Pm4rYqBjOOjRO8PoOc,rel_upgrade_dnd_092,,United States,,,,,,0,,3,90,180,52ZSTB0IDK6dXxaEQLUaQu,9,InActive,d8TPqZAQ06WkFZLGOshVmP,pod1,,,4f7c4174-915d-43f5-b48a-66668305fcb9,JuneToJul_50Tenants_BaseGroup,ma,2023-06-16T19:21:47Z,ma,2023-07-18T10:27:31Z
4WO2Tlg1qF3ladx77c1ns8,PlatformQe_API_Metering_Test2,,United States,,,,,,0,,3,90,180,52ZSTB0IDK6dXxaEQLUaQu,9,InActive,d8TPqZAQ06WkFZLGOshVmP,pod1,,,ed4bcc73-9c80-46a0-a8bc-a730e6e84d35,PlatfformQe_API_Metering_ProdGrp-Quarantine,ma,2023-08-18T04:13:24Z,ma,2023-09-02T04:45:49Z
52ZSTB0IDK6dXxaEQLUaQu,System Org,,US,,,,,,0,,3,90,180,52ZSTB0IDK6dXxaEQLUaQu,9,InActive,d8TPqZAQ06WkFZLGOshVmP,pod1,,,,,tomcat_global,2020-03-03T23:17:13Z,tomcat_global,2023-07-25T14:22:28Z
5d2Sd16G8mlbL4c2tOcGo4,rel_upgrade_dnd_089,,United States,,,,,,0,,3,90,180,52ZSTB0IDK6dXxaEQLUaQu,9,InActive,d8TPqZAQ06WkFZLGOshVmP,pod1,,,4f7c4174-915d-43f5-b48a-66668305fcb9,JuneToJul_50Tenants_BaseGroup,ma,2023-06-16T19:08:08Z,ma,2023-07-18T10:39:12Z
5eHU89UjK6tgdpRt9DCxSD,PlatformQE_Metering_09_AddProd,,United States,,,,,,0,,3,90,180,52ZSTB0IDK6dXxaEQLUaQu,9,InitialTenantRegistrationPending,d8TPqZAQ06WkFZLGOshVmP,pod1,,,c4d0d519-66c2-44d4-9173-e17691dda688,Default Provisioning Production Group-Quarantine,ma,2023-08-31T15:51:23Z,ma,2023-08-31T15:51:23Z
5QACsUvW5wfi8bM5PBS5om,perf_dnd_48,,United States,,,,,,0,,3,90,180,52ZSTB0IDK6dXxaEQLUaQu,9,InActive,d8TPqZAQ06WkFZLGOshVmP,pod1,,,f5ba0816-2168-401e-a971-ebcc12df0d6b,Performance_july_failed_Group-Quarantine,ma,2023-01-31T12:26:21Z,ma,2023-08-01T12:08:51Z
5u37MSWeYeyhSDsBDccPIC,rel_upgrade_dnd_008,,United States,,,,,,0,,3,90,180,52ZSTB0IDK6dXxaEQLUaQu,9,InActive,d8TPqZAQ06WkFZLGOshVmP,pod1,,,d88f4cae-0f6f-4c37-bc15-3c1c3df8706a,2023.06.P_EBF_1.10_Perf_Test,ma,2023-06-16T11:19:38Z,ma,2023-07-10T05:49:52Z
5wHMnh2A891iMBlDulEJ0q,rel_upgrade_dnd_086,,United States,,,,,,0,,3,90,180,52ZSTB0IDK6dXxaEQLUaQu,9,InActive,d8TPqZAQ06WkFZLGOshVmP,pod1,,,4f7c4174-915d-43f5-b48a-66668305fcb9,JuneToJul_50Tenants_BaseGroup,ma,2023-06-16T19:07:39Z,ma,2023-07-18T10:30:04Z
63rPyTHlbE8luMecGnRtAb,rel_upgrade_dnd_088,,United States,,,,,,0,,3,90,180,52ZSTB0IDK6dXxaEQLUaQu,9,InActive,d8TPqZAQ06WkFZLGOshVmP,pod1,,,4f7c4174-915d-43f5-b48a-66668305fcb9,JuneToJul_50Tenants_BaseGroup,ma,2023-06-16T19:07:58Z,ma,2023-07-18T10:12:37Z
641VR4vFE4ufOs2TdNUyoY,prodx_qa,,India,,,,,,0,,3,90,180,52ZSTB0IDK6dXxaEQLUaQu,9,InActive,d8TPqZAQ06WkFZLGOshVmP,pod1,,,8165ea80-ebab-482a-a9dd-a16a0e84ea2e,Default Production-Quarantine,ma,2023-01-30T10:29:27Z,ma,2023-07-25T14:23:40Z
69JP49srDVJkXuWwP3m3ad,SNOWPIPE_QA,,US,,,,,,1,This Sub-Org is being created for test related to SNOWPIPE feature,3,90,180,3zOY8yoPHUscEE2uPXxOUg,9,InitialTenantRegistrationPending,d8TPqZAQ06WkFZLGOshVmP,pod1,,,c4d0d519-66c2-44d4-9173-e17691dda688,Default Provisioning Production Group-Quarantine,pbhogadi,2023-08-09T06:26:37Z,pbhogadi,2023-08-09T06:26:37Z
6cNDb93Lj3JiUgZB0SX8Uj,rel_upgrade_dnd_093,,United States,,,,,,0,,3,90,180,52ZSTB0IDK6dXxaEQLUaQu,9,InActive,d8TPqZAQ06WkFZLGOshVmP,pod1,,,4f7c4174-915d-43f5-b48a-66668305fcb9,JuneToJul_50Tenants_BaseGroup,ma,2023-06-16T19:21:55Z,ma,2023-07-18T10:49:57Z
6G476zyYT2LkmlkPD2Q9AE,PA_DD,,US,,,,,,0,,3,90,180,641VR4vFE4ufOs2TdNUyoY,9,InitialTenantRegistrationPending,d8TPqZAQ06WkFZLGOshVmP,pod1,,,c4d0d519-66c2-44d4-9173-e17691dda688,Default Provisioning Production Group-Quarantine,parikkala,2023-07-22T13:15:00Z,parikkala,2023-07-22T13:15:00Z
6M5W1CPH3xXcELyjBmeX68,perf_dnd_story_1,,United States,,,,,,0,,3,90,180,52ZSTB0IDK6dXxaEQLUaQu,9,InActive,d8TPqZAQ06WkFZLGOshVmP,pod1,,,69e80324-ef3c-4d62-b164-ce3f11614241,2023.08.16_Claire_Performance,ma,2023-05-19T12:45:44Z,ma,2023-08-21T15:44:55Z
6SRzmlJRm7wipiEBJAQJou,perf_dnd_49,,United States,,,,,,0,,3,90,180,52ZSTB0IDK6dXxaEQLUaQu,9,InActive,d8TPqZAQ06WkFZLGOshVmP,pod1,,,f5ba0816-2168-401e-a971-ebcc12df0d6b,Performance_july_failed_Group-Quarantine,ma,2023-01-31T12:26:30Z,ma,2023-08-01T12:08:51Z
6ufDrVIPHGvc83Bx9y9Wc3,Informatica-TestNewSuborg,,US,,,,,,0,,3,90,180,4aLRwzChjJujmrd4Qsca0k,9,Provisioning,d8TPqZAQ06WkFZLGOshVmP,pod1,,,c4d0d519-66c2-44d4-9173-e17691dda688,Default Provisioning Production Group-Quarantine,profilingqamrelSC4,2023-08-08T13:32:19Z,profilingqamrelSC4,2023-09-07T06:49:13Z
6VKCoJg1X77grvj0kXtdmg,PlatformQE_Metering_11_Sandbox_Suborg,,US,,,,,,0,,3,90,180,4dfLpB5k7oQh5AfVcMuQcn,9,InActive,d8TPqZAQ06WkFZLGOshVmP,pod1,,,c4d0d519-66c2-44d4-9173-e17691dda688,Default Provisioning Production Group-Quarantine,hawklics,2023-09-01T05:15:04Z,hawklics,2023-09-01T05:15:04Z
7bo3c3bR3HcgZ0hIDChUAQ,rel_upgrade_dnd_100,,United States,,,,,,0,,3,90,180,52ZSTB0IDK6dXxaEQLUaQu,9,InActive,d8TPqZAQ06WkFZLGOshVmP,pod1,,,4f7c4174-915d-43f5-b48a-66668305fcb9,JuneToJul_50Tenants_BaseGroup,ma,2023-06-16T19:23:08Z,ma,2023-07-18T10:19:31Z
7ChLbwH13vkdNUwXf9wuiA,04April_CDGCProfiling-1,,US,,,,,,0,,3,90,180,5sb048e61Iel9fevJ4hI2m,9,InitialTenantRegistrationPending,d8TPqZAQ06WkFZLGOshVmP,pod1,,,c4d0d519-66c2-44d4-9173-e17691dda688,Default Provisioning Production Group-Quarantine,07April_CDGCProfiling_01,2023-08-04T12:01:15Z,07April_CDGCProfiling_01,2023-08-04T12:01:15Z
7f5T8U1wMI8cKC0SfjaLKk,PlatformQE_Metering_09,,United States,,,,,,0,,3,90,180,52ZSTB0IDK6dXxaEQLUaQu,9,InActive,d8TPqZAQ06WkFZLGOshVmP,pod1,,,c4d0d519-66c2-44d4-9173-e17691dda688,Default Provisioning Production Group-Quarantine,ma,2023-08-31T15:50:08Z,ma,2023-08-31T15:50:08Z
7GwT148O3W6ldQkIRSiiUS,CDIE_SL_LW,,US,,,,,,0,,3,90,180,52ZSTB0IDK6dXxaEQLUaQu,9,InitialTenantRegistrationPending,d8TPqZAQ06WkFZLGOshVmP,pod1,,,c4d0d519-66c2-44d4-9173-e17691dda688,Default Provisioning Production Group-Quarantine,ma,2023-09-19T23:31:19Z,ma,2023-09-19T23:31:19Z
7Ic20OhPCmojJiUVW0GSap,19Sep_Platform_Test05,,United States,,,,,,0,,3,90,180,52ZSTB0IDK6dXxaEQLUaQu,9,Active,d8TPqZAQ06WkFZLGOshVmP,pod1,,,253b2f1b-5688-46fa-a225-84e423d979a8,ProductionGrp_182815_19Sep2023,ma,2023-09-19T16:53:06Z,ma,2023-09-19T17:13:38Z
7kt5pwAKSkMg0eXXnWgkCl,19Sep_Platform_Test03,,United States,,,,,,0,,3,90,180,52ZSTB0IDK6dXxaEQLUaQu,9,Active,d8TPqZAQ06WkFZLGOshVmP,pod1,,,e0d381a3-af9e-4951-9912-f64c4dc47496,QE_Production_TenantGroup_N,ma,2023-09-19T12:58:19Z,ma,2023-09-20T02:37:20Z
7kUI0lPiOtTh6i6vjXg3qn,rel_upgrade_dnd_094,,United States,,,,,,0,,3,90,180,52ZSTB0IDK6dXxaEQLUaQu,9,InActive,d8TPqZAQ06WkFZLGOshVmP,pod1,,,4f7c4174-915d-43f5-b48a-66668305fcb9,JuneToJul_50Tenants_BaseGroup,ma,2023-06-16T19:22:05Z,ma,2023-07-18T10:23:52Z
7LXL9mGkIqFlkrPa2F2cm5,19Sep_CDGCUI_Perf_07,,United States,,,,,,0,,3,90,180,52ZSTB0IDK6dXxaEQLUaQu,9,Active,d8TPqZAQ06WkFZLGOshVmP,pod1,,,7e6a412b-2798-4e63-be7a-42bf934818f4,19Sept_CDGCUI_ProdGrp,ma,2023-09-19T07:31:31Z,ma,2023-09-19T07:48:46Z
7NGXIxhzhyTi5JSpP1krMf,Scanner_QE_04sept,,United States,,,,,,0,,3,90,180,52ZSTB0IDK6dXxaEQLUaQu,9,Provisioning,d8TPqZAQ06WkFZLGOshVmP,pod1,,,e1d0ebdf-9595-40eb-8435-fe909d8f4576,ProdGrp_Scanner_QE_Aug-Quarantine,ma,2023-09-04T14:53:48Z,ma,2023-09-04T14:57:41Z
80URF52XZvai85uzFpRY64,abc,,IN,,,,,,0,,3,90,180,52ZSTB0IDK6dXxaEQLUaQu,9,InActive,d8TPqZAQ06WkFZLGOshVmP,pod1,,,65dce53c-a58c-423c-aa4f-381d5fbd7ef4,Longevity_Prod,ma,2023-04-04T11:00:44Z,ma,2023-07-25T14:25:46Z
8AwPwbA0qiOhgKcIgTWJIT,perf_dnd_42,,United States,,,,,,0,,3,90,180,52ZSTB0IDK6dXxaEQLUaQu,9,InActive,d8TPqZAQ06WkFZLGOshVmP,pod1,,,08f7bd40-a484-4752-a1d3-dd3c951a0cc8,DevProd_PERF_FailedTenantsGrp,ma,2023-01-31T12:25:30Z,ma,2023-04-14T07:14:42Z
8bwOIaRRqqCeApplQBztGp,SKALLURU_MONGO_OCT,,US,,,,,,0,,3,0,0,5OZUAavlKeoemEkLiNyd8l,9,InitialTenantRegistrationPending,d8TPqZAQ06WkFZLGOshVmP,pod1,,,c4d0d519-66c2-44d4-9173-e17691dda688,Default Provisioning Production Group-Quarantine,selbaz@informatica.com,2023-08-23T15:42:44Z,selbaz@informatica.com,2023-08-23T15:42:44Z
8Fkx5k0p62Hg1EUlXd3tuG,rel_upgrade_dnd_097,,United States,,,,,,0,,3,90,180,52ZSTB0IDK6dXxaEQLUaQu,9,InActive,d8TPqZAQ06WkFZLGOshVmP,pod1,,,4f7c4174-915d-43f5-b48a-66668305fcb9,JuneToJul_50Tenants_BaseGroup,ma,2023-06-16T19:22:37Z,ma,2023-07-18T10:22:32Z
8I1wsog6t0KcjIr4BMBxY4,perf_dnd_30,,United States,,,,,,0,,3,90,180,52ZSTB0IDK6dXxaEQLUaQu,9,InActive,d8TPqZAQ06WkFZLGOshVmP,pod1,,,f5ba0816-2168-401e-a971-ebcc12df0d6b,Performance_july_failed_Group-Quarantine,ma,2023-01-31T12:24:02Z,ma,2023-08-01T12:08:51Z
8iEBn8M6hYrcc8lMDwbjmv,19Sep_CDGCUI_Perf_08,,United States,,,,,,0,,3,90,180,52ZSTB0IDK6dXxaEQLUaQu,9,Active,d8TPqZAQ06WkFZLGOshVmP,pod1,,,7e6a412b-2798-4e63-be7a-42bf934818f4,19Sept_CDGCUI_ProdGrp,ma,2023-09-19T07:34:07Z,ma,2023-09-19T07:50:52Z
8Kcsc8ahgEkl8jOHo0B0e0,CDIPC_SUBORG,,US,,,,,,0,,3,90,180,641VR4vFE4ufOs2TdNUyoY,9,InitialTenantRegistrationPending,d8TPqZAQ06WkFZLGOshVmP,pod1,,,c4d0d519-66c2-44d4-9173-e17691dda688,Default Provisioning Production Group-Quarantine,akamath,2023-09-01T11:23:08Z,akamath,2023-09-01T11:23:08Z
8pBejsgxcrvgud5dEVgaU2,19Sep_CDGCUI_Perf_03,,United States,,,,,,0,,3,90,180,52ZSTB0IDK6dXxaEQLUaQu,9,Active,d8TPqZAQ06WkFZLGOshVmP,pod1,,,7e6a412b-2798-4e63-be7a-42bf934818f4,19Sept_CDGCUI_ProdGrp,ma,2023-09-19T07:27:13Z,ma,2023-09-19T08:01:32Z
8rkhsvHMn40gMYCageTRQg,rel_upgrade_dnd_085,,United States,,,,,,0,,3,90,180,52ZSTB0IDK6dXxaEQLUaQu,9,InActive,d8TPqZAQ06WkFZLGOshVmP,pod1,,,4f7c4174-915d-43f5-b48a-66668305fcb9,JuneToJul_50Tenants_BaseGroup,ma,2023-06-16T18:56:38Z,ma,2023-07-18T10:47:03Z
8wq4zv5PePSbVqjdVWky2g,Search_June2023_CD,,IN,,,,,,0,,3,90,180,52ZSTB0IDK6dXxaEQLUaQu,9,Active,d8TPqZAQ06WkFZLGOshVmP,pod1,,,1fe5a239-dd20-41a7-8f33-6c7c2ec72b00,SEARCH_TG_CDN,ma,2023-06-01T17:28:17Z,ma,2023-08-21T05:41:39Z
8xyeMDREpNtiZMTWdp7zmc,PM_SubORG,,US,,,,,,0,,3,90,180,641VR4vFE4ufOs2TdNUyoY,9,InitialTenantRegistrationPending,d8TPqZAQ06WkFZLGOshVmP,pod1,,,c4d0d519-66c2-44d4-9173-e17691dda688,Default Provisioning Production Group-Quarantine,cdipc_qa,2023-09-04T06:36:43Z,cdipc_qa,2023-09-04T06:36:43Z
903J6eN126LjE8ba4GQDY4,perf_dnd_12,,United States,,,,,,0,,3,90,180,52ZSTB0IDK6dXxaEQLUaQu,9,InActive,d8TPqZAQ06WkFZLGOshVmP,pod1,,,f5ba0816-2168-401e-a971-ebcc12df0d6b,Performance_july_failed_Group-Quarantine,ma,2023-01-31T12:21:57Z,ma,2023-08-04T06:23:21Z
9HLlRbgeyeIj0lz1ai7zCu,PlatformQE_Metering_11_AddProd,,United States,,,,,,0,,3,90,180,52ZSTB0IDK6dXxaEQLUaQu,9,InitialTenantRegistrationPending,d8TPqZAQ06WkFZLGOshVmP,pod1,,,c4d0d519-66c2-44d4-9173-e17691dda688,Default Provisioning Production Group-Quarantine,ma,2023-09-01T05:16:26Z,ma,2023-09-01T05:16:26Z
9kCHfynWgUBfPh8D1FcYyL,Infa-PramodNew,,IN,,,,,,0,,3,90,180,52ZSTB0IDK6dXxaEQLUaQu,9,InActive,d8TPqZAQ06WkFZLGOshVmP,pod1,,,aa0a68f9-cbd0-4dc4-a80a-56909c9e613d, AJSK_v2_upgradeTest_Production,ma,2022-05-04T05:27:49Z,ma,2023-07-25T14:35:22Z
9V5ajaBI8knerqclJzfgcW,SuborgMrel,,IN,,,,,,0,,3,90,180,5OZUAavlKeoemEkLiNyd8l,9,InitialTenantRegistrationPending,d8TPqZAQ06WkFZLGOshVmP,pod1,,,c4d0d519-66c2-44d4-9173-e17691dda688,Default Provisioning Production Group-Quarantine,apim.mrel.all,2023-09-13T05:15:59Z,apim.mrel.all,2023-09-13T05:15:59Z
a0LNJKgGBBZdz5jWkIb7kh,rel_upgrade_dnd_082,,United States,,,,,,0,,3,90,180,52ZSTB0IDK6dXxaEQLUaQu,9,InActive,d8TPqZAQ06WkFZLGOshVmP,pod1,,,4f7c4174-915d-43f5-b48a-66668305fcb9,JuneToJul_50Tenants_BaseGroup,ma,2023-06-16T18:56:15Z,ma,2023-07-18T10:33:23Z
abM3l4Tot6AcA0UF7eGtiq,PlatformQE_Metering_10_Sandbox_Suborg,,US,,,,,,0,,3,90,180,4QrKnREFurMlCl3Ma6Rsa2,9,InActive,d8TPqZAQ06WkFZLGOshVmP,pod1,,,c4d0d519-66c2-44d4-9173-e17691dda688,Default Provisioning Production Group-Quarantine,hawklics,2023-08-31T16:37:37Z,hawklics,2023-08-31T16:37:37Z
aCa55hA7OO4g9QdRG0Yzgi,rel_upgrade_dnd_140,,United States,,,,,,0,,3,90,180,52ZSTB0IDK6dXxaEQLUaQu,9,InActive,d8TPqZAQ06WkFZLGOshVmP,pod1,,,4f7c4174-915d-43f5-b48a-66668305fcb9,JuneToJul_50Tenants_BaseGroup,ma,2023-06-17T06:13:12Z,ma,2023-07-25T14:35:53Z
acepM1Xwix9dCS58WfgWKA,19Sep_CDGCUI_Perf_05,,United States,,,,,,0,,3,90,180,52ZSTB0IDK6dXxaEQLUaQu,9,Active,d8TPqZAQ06WkFZLGOshVmP,pod1,,,7e6a412b-2798-4e63-be7a-42bf934818f4,19Sept_CDGCUI_ProdGrp,ma,2023-09-19T07:28:48Z,ma,2023-09-19T08:01:40Z
afHRaaMv1vwiBwulQsIieQ,rc3_v1_dev_0430_1,,IN,,,,,,0,,3,90,180,52ZSTB0IDK6dXxaEQLUaQu,9,InActive,d8TPqZAQ06WkFZLGOshVmP,pod1,,,8165ea80-ebab-482a-a9dd-a16a0e84ea2e,Default Production-Quarantine,ma,2022-04-30T09:19:23Z,ma,2023-07-25T14:36:08Z
aIZmv2AW7vUbmpU65xticW,perf_dnd_02,,United States,,,,,,0,,3,90,180,52ZSTB0IDK6dXxaEQLUaQu,9,InActive,d8TPqZAQ06WkFZLGOshVmP,pod1,,,08f7bd40-a484-4752-a1d3-dd3c951a0cc8,DevProd_PERF_FailedTenantsGrp,ma,2023-01-31T10:59:09Z,ma,2023-04-14T07:08:12Z
aq7OcKUOImGc29xDamVF2l,API_MREL_AUTOMATION,,IN,,,,,,0,,3,90,180,52ZSTB0IDK6dXxaEQLUaQu,9,InitialTenantRegistrationPending,d8TPqZAQ06WkFZLGOshVmP,pod1,,,c4d0d519-66c2-44d4-9173-e17691dda688,Default Provisioning Production Group-Quarantine,ma,2023-08-22T05:04:47Z,ma,2023-08-22T05:04:47Z
as9y31N2wIaiBWlMs2e5aG,2023_09_P_PlatformQe_Sanity_Tenant1,,United States,,,,,,0,,3,90,180,52ZSTB0IDK6dXxaEQLUaQu,9,Active,d8TPqZAQ06WkFZLGOshVmP,pod1,,,f01561bd-68e4-434f-96b7-1af6d6add1ec,2023_09_P_PlatformQe_Sanity_ProdGrp,ma,2023-09-19T08:41:39Z,ma,2023-09-19T08:59:15Z
atmwpZIO9m6gDXGpJArpS6,nov22_dp15,,United States,,,,,,0,,3,90,180,52ZSTB0IDK6dXxaEQLUaQu,9,InActive,d8TPqZAQ06WkFZLGOshVmP,pod1,,,7064089a-0266-431a-a261-31d65b67ef7e,CDGCPerf_NovTenants_group1,ma,2022-11-24T10:55:54Z,ma,2023-07-25T14:36:43Z
avmsfAlfhSqbfsua0u83yR,19Sep_CDGCUI_Perf_02,,United States,,,,,,0,,3,90,180,52ZSTB0IDK6dXxaEQLUaQu,9,Active,d8TPqZAQ06WkFZLGOshVmP,pod1,,,7e6a412b-2798-4e63-be7a-42bf934818f4,19Sept_CDGCUI_ProdGrp,ma,2023-09-19T07:26:20Z,ma,2023-09-19T08:02:01Z
ay64QZ9qpQWlznQmKtFRwZ,rel_upgrade_dnd_090,,United States,,,,,,0,,3,90,180,52ZSTB0IDK6dXxaEQLUaQu,9,InActive,d8TPqZAQ06WkFZLGOshVmP,pod1,,,4f7c4174-915d-43f5-b48a-66668305fcb9,JuneToJul_50Tenants_BaseGroup,ma,2023-06-16T19:08:21Z,ma,2023-07-18T10:26:58Z
b64ivrMiKcUivXw0HGzeSV,05Apr_Perf_QE,,United States,,,,,,0,,3,90,180,52ZSTB0IDK6dXxaEQLUaQu,9,InActive,d8TPqZAQ06WkFZLGOshVmP,pod1,,,40c9127f-5262-4267-801e-af5e5459f01e,PROD_GRP_PerfQE_0504-Quarantine,ma,2023-04-05T08:41:22Z,ma,2023-08-22T16:25:42Z
bGtDwBrVQM1cuSJXgBi94v,PlatformQE_Metering_09_AddProd_Suborg,,US,,,,,,0,,3,90,180,5eHU89UjK6tgdpRt9DCxSD,9,InActive,d8TPqZAQ06WkFZLGOshVmP,pod1,,,c4d0d519-66c2-44d4-9173-e17691dda688,Default Provisioning Production Group-Quarantine,hawklics,2023-08-31T15:56:22Z,hawklics,2023-08-31T15:56:22Z
biqeSyETDY8hSsqvUysMsM,rel_upgrade_dnd_099,,United States,,,,,,0,,3,90,180,52ZSTB0IDK6dXxaEQLUaQu,9,InActive,d8TPqZAQ06WkFZLGOshVmP,pod1,,,4f7c4174-915d-43f5-b48a-66668305fcb9,JuneToJul_50Tenants_BaseGroup,ma,2023-06-16T19:22:56Z,ma,2023-07-18T13:15:47Z
c41AetzbYqLfgMdKWiSKaT,SuborgMrel,,IN,,,,,,0,,3,90,180,5OZUAavlKeoemEkLiNyd8l,9,InitialTenantRegistrationPending,d8TPqZAQ06WkFZLGOshVmP,pod1,,,c4d0d519-66c2-44d4-9173-e17691dda688,Default Provisioning Production Group-Quarantine,apim.mrel.all,2023-09-13T05:15:36Z,apim.mrel.all,2023-09-13T05:15:36Z
ciMfCM2etEKbgyyrwXQsc2,19June_Platform_QE,,United States,,,,,,0,,3,90,180,52ZSTB0IDK6dXxaEQLUaQu,9,Active,d8TPqZAQ06WkFZLGOshVmP,pod1,,,0a4e8333-88f0-4892-887c-103d51e2a600,19June_ProdGrp_QE,ma,2023-06-19T09:23:18Z,ma,2023-07-25T14:37:44Z
ciz3pa12He7bc4yWOA6lQ5,rel_upgrade_dnd_083,,United States,,,,,,0,,3,90,180,52ZSTB0IDK6dXxaEQLUaQu,9,InActive,d8TPqZAQ06WkFZLGOshVmP,pod1,,,4f7c4174-915d-43f5-b48a-66668305fcb9,JuneToJul_50Tenants_BaseGroup,ma,2023-06-16T18:56:22Z,ma,2023-07-18T10:54:39Z
cnAU4pbGyAykeE8kmvdZap,cpsuborg,,US,,,,,,0,,3,90,180,4aLRwzChjJujmrd4Qsca0k,9,InitialTenantRegistrationPending,d8TPqZAQ06WkFZLGOshVmP,pod1,,,c4d0d519-66c2-44d4-9173-e17691dda688,Default Provisioning Production Group-Quarantine,profilingqamrelSC4,2023-07-21T10:45:18Z,profilingqamrelSC4,2023-07-21T10:45:18Z
cNEotAvPV0PdcKnSaLAWcz,PlatformQE_Metering_11,,United States,,,,,,0,,3,90,180,52ZSTB0IDK6dXxaEQLUaQu,9,InActive,d8TPqZAQ06WkFZLGOshVmP,pod1,,,c4d0d519-66c2-44d4-9173-e17691dda688,Default Provisioning Production Group-Quarantine,ma,2023-09-01T05:10:03Z,ma,2023-09-01T05:10:03Z
cZBKfDgfPUFf0t94ankN2K,SubOrg-20230740282062,,IN,,,,,,1,,3,90,180,9kCHfynWgUBfPh8D1FcYyL,9,InitialTenantRegistrationPending,d8TPqZAQ06WkFZLGOshVmP,pod1,,,c4d0d519-66c2-44d4-9173-e17691dda688,Default Provisioning Production Group-Quarantine,mrel_pod1_common,2023-07-24T13:33:59Z,mrel_pod1_common,2023-07-24T13:33:59Z
d2ReQIAOz6Mjp2G9fsaaEv,rel_upgrade_dnd_091,,United States,,,,,,0,,3,90,180,52ZSTB0IDK6dXxaEQLUaQu,9,InActive,d8TPqZAQ06WkFZLGOshVmP,pod1,,,4f7c4174-915d-43f5-b48a-66668305fcb9,JuneToJul_50Tenants_BaseGroup,ma,2023-06-16T19:21:40Z,ma,2023-07-18T10:23:54Z
eqoEtg0FpYzbnmXe6BvZUx,nov22_dp18,,United States,,,,,,0,,3,90,180,52ZSTB0IDK6dXxaEQLUaQu,9,InActive,d8TPqZAQ06WkFZLGOshVmP,pod1,,,7064089a-0266-431a-a261-31d65b67ef7e,CDGCPerf_NovTenants_group1,ma,2022-11-24T10:56:32Z,ma,2023-07-25T14:38:40Z
f4ibLKde9seeGN7f2m4Gip,p2pms_CAI_TF_2023.08.S,,IN,,,,,,0,,3,90,180,52ZSTB0IDK6dXxaEQLUaQu,9,InitialTenantRegistrationPending,d8TPqZAQ06WkFZLGOshVmP,pod1,,,c4d0d519-66c2-44d4-9173-e17691dda688,Default Provisioning Production Group-Quarantine,ma,2023-07-23T11:39:16Z,ma,2023-07-23T11:39:16Z
fmtb0UxZDGok41oHIzIGa4,nov22_dp19,,United States,,,,,,0,,3,90,180,52ZSTB0IDK6dXxaEQLUaQu,9,InActive,d8TPqZAQ06WkFZLGOshVmP,pod1,,,7064089a-0266-431a-a261-31d65b67ef7e,CDGCPerf_NovTenants_group1,ma,2022-11-24T10:56:44Z,ma,2023-07-25T14:39:00Z
fmw3fvCCuq5l9SkxUgzCC3,25Jan_Model_CD,,United States,,,,,,0,,3,90,180,52ZSTB0IDK6dXxaEQLUaQu,9,Active,d8TPqZAQ06WkFZLGOshVmP,pod1,,,dc5bf093-99d4-42b5-a9d4-4ee3e3a1e05d,MODEL_TG_CDN,ma,2023-01-25T11:03:29Z,ma,2023-08-02T06:20:29Z
fOxmSSob0gNjg5M2Fy6u0D,25Aug_Discovery_CD_2,,United States,,,,,,0,,3,90,180,52ZSTB0IDK6dXxaEQLUaQu,9,InActive,d8TPqZAQ06WkFZLGOshVmP,pod1,,,722a4214-5dbd-46e3-b6ae-15ec8884545e,QE-ProductionGrp_INITIAL_Discovery-Quarantine,ma,2022-08-25T09:40:37Z,ma,2023-07-25T14:39:04Z
fSahs5j89Gpg0c9HuDJdG4,19Sep_CDGCUI_Perf_01,,United States,,,,,,0,,3,90,180,52ZSTB0IDK6dXxaEQLUaQu,9,Active,d8TPqZAQ06WkFZLGOshVmP,pod1,,,7e6a412b-2798-4e63-be7a-42bf934818f4,19Sept_CDGCUI_ProdGrp,ma,2023-09-19T07:25:57Z,ma,2023-09-19T08:02:18Z
fvk9oQIw22ncv2cWV9dtiZ,A_Suborg_Test,,IN,,,,,,1,,3,90,180,1BA66RdrXaahHYHfbxBfeA,9,InitialTenantRegistrationPending,d8TPqZAQ06WkFZLGOshVmP,pod1,,,c4d0d519-66c2-44d4-9173-e17691dda688,Default Provisioning Production Group-Quarantine,dqmrelusernov,2023-09-19T05:09:26Z,ma,2023-09-19T05:09:26Z
g0o91Bvp1oOkhOrRJBLbQ1,ADITI_MREL,,US,,,,,,0,,1,0,0,5OZUAavlKeoemEkLiNyd8l,4,InitialTenantRegistrationPending,d8TPqZAQ06WkFZLGOshVmP,pod1,,,c4d0d519-66c2-44d4-9173-e17691dda688,Default Provisioning Production Group-Quarantine,selbaz@informatica.com,2023-08-30T10:41:02Z,selbaz@informatica.com,2023-08-30T10:41:02Z
gKx2P3VReOyjdNfrNw5Fm6,Informatica_Test,,IN,,,,,,0,,3,90,180,52ZSTB0IDK6dXxaEQLUaQu,9,InActive,d8TPqZAQ06WkFZLGOshVmP,pod1,,,8165ea80-ebab-482a-a9dd-a16a0e84ea2e,Default Production-Quarantine,ma,2023-02-16T07:15:25Z,ma,2023-07-25T14:39:19Z
gUb01MMj6ynj3JBwbKcbIe,PlatformQE_Metering_11_AddProd_Suborg,,US,,,,,,0,,3,90,180,9HLlRbgeyeIj0lz1ai7zCu,9,InActive,d8TPqZAQ06WkFZLGOshVmP,pod1,,,c4d0d519-66c2-44d4-9173-e17691dda688,Default Provisioning Production Group-Quarantine,hawklics,2023-09-01T05:17:17Z,hawklics,2023-09-01T05:17:17Z
gWEkLgQ8UMGdI18bk6tpcV,29aug_profiling_qe,,United States,,,,,,0,,3,90,180,52ZSTB0IDK6dXxaEQLUaQu,9,InitialTenantRegistrationPending,d8TPqZAQ06WkFZLGOshVmP,pod1,,,c4d0d519-66c2-44d4-9173-e17691dda688,Default Provisioning Production Group-Quarantine,ma,2023-08-29T07:12:17Z,ma,2023-08-29T07:12:17Z
hb5VcUk9nOkfaQoZqizvyR,04Jul_MKG_QE,,IN,,,,,,0,,3,90,180,52ZSTB0IDK6dXxaEQLUaQu,9,InActive,d8TPqZAQ06WkFZLGOshVmP,pod1,,,85f92804-c6cc-4441-8b1d-ed9b5934332d,July_Release_Initial_MKG,ma,2023-07-04T13:54:02Z,ma,2023-08-09T04:55:46Z
hE63Al8mpmTigo27DKQzuF,cdgc_ui_2411_02,,IN,,,,,,0,,3,90,180,52ZSTB0IDK6dXxaEQLUaQu,9,InActive,d8TPqZAQ06WkFZLGOshVmP,pod1,,,b6192612-0cce-4fb1-9490-8f3af0d2c47d,NEWDQ_Group-Quarantine,ma,2022-11-24T03:23:15Z,ma,2023-07-26T09:54:46Z
hmcFGRyn1UKkFdPqiNZDUq,DataDestructionAugust,,IN,,,,,,0,,3,90,180,52ZSTB0IDK6dXxaEQLUaQu,9,UpgradeFailed,d8TPqZAQ06WkFZLGOshVmP,pod1,,,2e724736-8cb1-4a90-9114-9500e9258fd1,2023.S_Temp_Grp-Quarantine,ma,2023-08-18T13:16:25Z,hawklics,2023-08-21T08:05:47Z
i5G1zp58WwZhwXe0ieZD60,19Sep_CDGCUI_Perf_04,,United States,,,,,,0,,3,90,180,52ZSTB0IDK6dXxaEQLUaQu,9,Active,d8TPqZAQ06WkFZLGOshVmP,pod1,,,7e6a412b-2798-4e63-be7a-42bf934818f4,19Sept_CDGCUI_ProdGrp,ma,2023-09-19T07:28:16Z,ma,2023-09-19T08:01:47Z
iD8tER6SAGYdObBSR2PKQy,JUNE_GA_BKP_TENANT_1,,United States,,,,,,0,,3,90,180,52ZSTB0IDK6dXxaEQLUaQu,9,Active,d8TPqZAQ06WkFZLGOshVmP,pod1,,,8551e0ba-1fa7-445a-a17f-96f9a2b2a1e5,ProdGrp_2023.06.P_BACKUP_TENANTS,ma,2023-08-01T05:55:15Z,ma,2023-08-01T06:10:44Z
ijtU3qlKFGSlKyhrwnFEua,cdipc_pm_demo_org,,India,,,,,,0,,3,90,180,52ZSTB0IDK6dXxaEQLUaQu,9,InitialTenantRegistrationPending,d8TPqZAQ06WkFZLGOshVmP,pod1,,,c4d0d519-66c2-44d4-9173-e17691dda688,Default Provisioning Production Group-Quarantine,ma,2023-07-26T13:32:31Z,ma,2023-07-26T13:32:31Z
iqQNhL7yfUQgHRUXPrZzS4,perf_dnd_65,,United States,,,,,,0,,3,90,180,52ZSTB0IDK6dXxaEQLUaQu,9,InActive,d8TPqZAQ06WkFZLGOshVmP,pod1,,,f5ba0816-2168-401e-a971-ebcc12df0d6b,Performance_july_failed_Group-Quarantine,ma,2023-04-27T12:11:39Z,ma,2023-08-01T12:08:51Z
j5dSexfhYQ4b9k6WXtk20x,19Sep_CDGCUI_Perf_06,,United States,,,,,,0,,3,90,180,52ZSTB0IDK6dXxaEQLUaQu,9,Active,d8TPqZAQ06WkFZLGOshVmP,pod1,,,7e6a412b-2798-4e63-be7a-42bf934818f4,19Sept_CDGCUI_ProdGrp,ma,2023-09-19T07:31:23Z,ma,2023-09-19T07:48:42Z
jKkkOXhPqMNd4Ejrye8yoO,rel_upgrade_dnd_095,,United States,,,,,,0,,3,90,180,52ZSTB0IDK6dXxaEQLUaQu,9,InActive,d8TPqZAQ06WkFZLGOshVmP,pod1,,,4f7c4174-915d-43f5-b48a-66668305fcb9,JuneToJul_50Tenants_BaseGroup,ma,2023-06-16T19:22:14Z,ma,2023-07-18T10:24:22Z
k88Q2GKpS6PgWLqWRN0Go9,INFA_MREL01,,IN,,,,,,0,,3,90,180,52ZSTB0IDK6dXxaEQLUaQu,9,InActive,d8TPqZAQ06WkFZLGOshVmP,pod1,,,8165ea80-ebab-482a-a9dd-a16a0e84ea2e,Default Production-Quarantine,ma,2022-04-25T12:02:13Z,ma,2023-07-25T14:40:53Z
kRTpEje5EeXjYFyCZntj0H,INFA,,CA,,,,,,1,,3,90,180,52ZSTB0IDK6dXxaEQLUaQu,9,InActive,d8TPqZAQ06WkFZLGOshVmP,pod1,,,8165ea80-ebab-482a-a9dd-a16a0e84ea2e,Default Production-Quarantine,ma,2022-03-31T21:57:38Z,dq_admin,2023-07-25T14:41:09Z
kuj2VHwgycVhzNdIebTRo5,platformQE_16Aug01,,India,KAR,Bangalore,Address 01,Address 02,Address 03,0,,3,90,180,52ZSTB0IDK6dXxaEQLUaQu,9,InActive,d8TPqZAQ06WkFZLGOshVmP,pod1,,,a9f2a310-cb62-474c-ac83-aa657dc0a45a,CD_PlatformQE_Grp,ma,2023-08-16T09:29:37Z,ma,2023-08-17T10:01:00Z
kwZ7nzEyD8wb4UQAdsPPYO,04April_CDGCProfiling SubOrg1,,US,,,,,,0,,3,90,180,5sb048e61Iel9fevJ4hI2m,9,InitialTenantRegistrationPending,d8TPqZAQ06WkFZLGOshVmP,pod1,,,c4d0d519-66c2-44d4-9173-e17691dda688,Default Provisioning Production Group-Quarantine,07April_CDGCProfiling_01,2023-07-25T08:48:38Z,07April_CDGCProfiling_01,2023-07-25T08:48:38Z
lBXp4TpgqsBibvY6rX4HQn,27June_MKG_QE,,United States,,,,,,0,,3,90,180,52ZSTB0IDK6dXxaEQLUaQu,9,InActive,d8TPqZAQ06WkFZLGOshVmP,pod1,,,1bf871a0-e41d-4e85-9d61-4ed482defaf5,June_MKG_ProdGrp_QE,ma,2023-06-27T11:46:55Z,ma,2023-07-14T22:07:54Z
lCGi25TnWYXeu34RwmxwSj,UBM (UK) Limited,,GB,London,,,,,0,,3,90,180,52ZSTB0IDK6dXxaEQLUaQu,9,InActive,d8TPqZAQ06WkFZLGOshVmP,pod1,,,8165ea80-ebab-482a-a9dd-a16a0e84ea2e,Default Production-Quarantine,ma,2023-02-13T10:42:11Z,ma,2023-07-25T14:41:20Z
ldsziLZYGaneVPBnCnR22j,Informatica,,IN,,,,,,0,,3,90,180,52ZSTB0IDK6dXxaEQLUaQu,9,InActive,d8TPqZAQ06WkFZLGOshVmP,pod1,,,8165ea80-ebab-482a-a9dd-a16a0e84ea2e,Default Production-Quarantine,ma,2022-11-30T05:29:23Z,ma,2023-07-25T14:41:22Z
lfErW8RdYQEcaCcre68n0I,20June_PLTF_QE02,,India,KAR,Bangalore,Address 01,Address 02,Address 03,0,,3,90,180,52ZSTB0IDK6dXxaEQLUaQu,9,InActive,d8TPqZAQ06WkFZLGOshVmP,pod1,,,86d31a8a-63c8-47db-8a36-3980286ba4f5,Platform_May_ProdGrp,ma,2023-06-20T10:11:21Z,ma,2023-07-25T14:41:23Z
